HORYU-4                 
1 41340U 16012D   20357.29029001  .00000723  00000-0  47599-4 0  9992
2 41340  31.0038 215.4502 0013984 214.2648 145.7087 15.01685621266135
E-ST@R-II               
1 41459U 16025D   20358.13467296  .00002267  00000-0  11632-3 0  9996
2 41459  98.1206 118.2337 0161560 296.7036  61.7730 15.07133406255857
AAUSAT 4                
1 41460U 16025E   20358.10015838  .00002785  00000-0  13673-3 0  9998
2 41460  98.1194 121.2506 0149750 283.2515  75.2088 15.09748044256092
BEESAT-4                
1 41619U 16040W   20358.16103016  .00003210  00000-0  13254-3 0  9992
2 41619  97.2967  53.0298 0009631 228.1342 131.9075 15.24689256238143
CANX-7                  
1 41788U 16059F   20358.22869161  .00020484  00000-0  25857-2 0  9999
2 41788  98.2557  91.2980 0023500  64.6081 295.8770 14.81743875227737
RAVAN                   
1 41849U 16067B   20358.09563559  .00000179  00000-0  20016-4 0  9996
2 41849  97.9490 111.3582 0008460 344.2611  15.8347 14.98796453224873
CELTEE 1                
1 41850U 16067C   20357.26656832  .00001069  00000-0  97401-4 0  9994
2 41850  97.9409 107.6568 0008238 354.4089   5.7039 14.97313263224602
OPTICUBE 04             
1 41851U 16067D   20357.29816042 -.00000111  00000-0 -43601-5 0  9992
2 41851  97.9390 107.2000 0008699 352.8706   7.2390 14.97009998224589
AEROCUBE 8D             
1 41852U 16067E   20357.31333249  .00000615  00000-0  58651-4 0  9996
2 41852  97.9390 107.0644 0009109 352.8279   7.2810 14.97050574224565
AEROCUBE 8C             
1 41853U 16067F   20357.34928314  .00000109  00000-0  14759-4 0  9992
2 41853  97.9398 106.9875 0009863 355.3482   4.7646 14.97023411224568
PROMETHEUS 2-1          
1 41854U 16067G   20358.07681039  .00000919  00000-0  84269-4 0  9996
2 41854  97.9412 108.1839 0009885 352.3215   7.7854 14.97424164224693
PROMETHEUS 2-3          
1 41855U 16067H   20358.07599822  .00001011  00000-0  92121-4 0  9995
2 41855  97.9415 108.2252 0010049 352.6567   7.4506 14.97436391224690
INS-1B                  
1 41954U 17008G   20357.72656948  .00002876  00000-0  11655-3 0  9997
2 41954  97.3327  58.5700 0008860   7.7329 352.4044 15.25419207214062
BGUSAT                  
1 41999U 17008BD  20357.49557162  .00004971  00000-0  18123-3 0  9993
2 41999  97.3471  63.6227 0007748  16.2547 343.8940 15.28604655213663
DIDO-2                  
1 42000U 17008BE  20357.47449845  .00001669  00000-0  69896-4 0  9998
2 42000  97.3335  58.7386 0008987  27.7533 332.4183 15.24887958213416
PEASSS                  
1 42015U 17008BV  20357.43578529  .00002270  00000-0  90523-4 0  9992
2 42015  97.3363  60.7070 0006919  32.2360 327.9300 15.26193771214010
AL-FARABI 1             
1 42016U 17008BW  20358.19732496  .00003416  00000-0  13078-3 0  9994
2 42016  97.3404  62.8383 0006594  29.2633 330.8974 15.27206501214326
NAYIF-1 (EO-88)         
1 42017U 17008BX  20357.71212607  .00003509  00000-0  13410-3 0  9992
2 42017  97.3399  62.3700 0006676  30.1211 330.0411 15.27249843214270
UCLSAT                  
1 42765U 17036A   20357.43188360  .00002388  00000-0  10090-3 0  9995
2 42765  97.2768  46.4074 0012782  84.4918 275.7777 15.24124083195203
LITUANICASAT-2          
1 42768U 17036D   20357.38837196  .00004228  00000-0  17140-3 0  9998
2 42768  97.2837  46.6848 0015798  74.9915 285.3071 15.25057447194477
AALTO-1                 
1 42775U 17036L   20357.68250064  .00001490  00000-0  67613-4 0  9991
2 42775  97.2740  43.9102 0015371  79.1500 281.1465 15.22218995194302
URSA MAIOR              
1 42776U 17036M   20357.38449308  .00001611  00000-0  72403-4 0  9998
2 42776  97.2753  43.9926 0015165  79.7302 280.5644 15.22440867194271
COMPASS 2               
1 42777U 17036N   20358.09440082  .00003691  00000-0  15165-3 0  9999
2 42777  97.2820  47.6960 0013561  74.4673 285.8062 15.24720498194531
DIAMOND RED             
1 42783U 17036U   20357.38515612  .00001897  00000-0  82649-4 0  9997
2 42783  97.2768  45.4256 0013536  87.1778 273.1008 15.23315976194352
PEGASUS                 
1 42784U 17036V   20357.43162820  .00002162  00000-0  92574-4 0  9997
2 42784  97.2773  46.0177 0013356  85.6442 274.6322 15.23765108194394
DIAMOND GREEN           
1 42785U 17036W   20357.38419868  .00001898  00000-0  82699-4 0  9991
2 42785  97.2771  45.4658 0013441  87.7168 272.5608 15.23314732194424
DIAMOND BLUE            
1 42786U 17036X   20358.10573451  .00001971  00000-0  85748-4 0  9992
2 42786  97.2769  46.1596 0013268  85.6672 274.6081 15.23318100194459
NUDTSAT                 
1 42787U 17036Y   20357.57630263  .00002657  00000-0  10794-3 0  9998
2 42787  97.2813  48.0265 0012773  79.4622 280.8054 15.25354998194366
SUCHAI                  
1 42788U 17036Z   20357.38308059  .00002813  00000-0  11732-3 0  9990
2 42788  97.2785  46.7462 0012866  84.0470 276.2233 15.24418991194502
SKCUBE                  
1 42789U 17036AA  20357.45081005  .00002571  00000-0  10812-3 0  9997
2 42789  97.2779  46.6010 0012775  84.2094 276.0599 15.24214642194428
VZLUSAT-1               
1 42790U 17036AB  20357.37091859  .00003603  00000-0  14554-3 0  9992
2 42790  97.2808  47.8163 0012161  81.7969 278.4648 15.25327568194487
ROBUSTA-1B              
1 42792U 17036AD  20357.18312883  .00002400  00000-0  10051-3 0  9998
2 42792  97.2780  46.6546 0012341  85.1039 275.1607 15.24423668194415
CICERO 6                
1 42793U 17036AE  20357.39158587  .00001620  00000-0  70500-4 0  9990
2 42793  97.2753  45.9961 0011763  87.4147 272.8437 15.23568609194476
D-SAT                   
1 42794U 17036AF  20358.11656022  .00000366  00000-0  36474-4 0  9997
2 42794  97.4763  21.2507 0127487  95.0831 266.4954 14.91403213190819
CORVUS BC2              
1 42846U 17042X   20357.34126525  .00000491  00000-0  53397-4 0  9998
2 42846  97.4963 232.1306 0010069  19.4770 340.6832 14.92197482187420
CORVUS BC1              
1 42847U 17042Y   20357.39121025  .00000313  00000-0  35798-4 0  9992
2 42847  97.4966 232.3824 0009700  18.9997 341.1583 14.92299339187430
MIRATA                  
1 43015U 17073C   20357.30946197  .00001340  00000-0  10737-3 0  9996
2 43015  97.7134 262.3442 0252089 155.2338 206.1227 14.80144745167004
MAKERSAT 0              
1 43016U 17073D   20357.46796080  .00000956  00000-0  78352-4 0  9998
2 43016  97.7169 262.6270 0255373 156.2878 205.0353 14.79571733167001
DELLINGR (RBLE)         
1 43021U 98067NJ  20357.49439980  .00049746  00000-0  26764-3 0  9991
2 43021  51.6333  34.2055 0003323  34.9737 325.1483 15.79693650176489
AEROCUBE 7B (OCSD B)    
1 43042U 17071F   20357.08621385  .00007023  00000-0  15184-3 0  9993
2 43042  51.6360 224.7873 0003786  28.3272 331.7920 15.45654033171377
AEROCUBE 7C (OCSD C)    
1 43043U 17071G   20357.35196254  .00007476  00000-0  16139-3 0  9999
2 43043  51.6359 223.5769 0004097  32.0559 328.0677 15.45591874171385
CHEFSAT                 
1 43044U 17071H   20357.74901671  .00020117  00000-0  32604-3 0  9992
2 43044  51.6352 198.8338 0002610  51.5870 308.5354 15.52757710171753
ASGARDIA 1              
1 43049U 17071N   20357.34541987  .00007310  00000-0  15829-3 0  9993
2 43049  51.6373 222.8805 0002314  60.6725 299.4493 15.45538659171392
ISARA                   
1 43050U 17071P   20357.30233228  .00016370  00000-0  28281-3 0  9999
2 43050  51.6333 205.4288 0001764  84.9809 275.1381 15.51123450171621
PROPCUBE 2 (FAUNA)      
1 43052U 17071R   20357.33345652  .00008134  00000-0  17146-3 0  9996
2 43052  51.6361 220.5633 0002184  59.6434 300.4769 15.46165069171411
CORVUS BC3              
1 43118U 18004H   20358.18981360  .00001588  00000-0  68885-4 0  9995
2 43118  97.4253  66.7437 0011767 107.3039 252.9487 15.23769737163734
MICROMAS-2A             
1 43131U 18004W   20357.42802652  .00004065  00000-0  15981-3 0  9993
2 43131  97.4314  68.4608 0010348 106.3775 253.8602 15.26200486163751
SPACEBEE-4              
1 43139U 18004AE  20357.48040352  .00006370  00000-0  23636-3 0  9995
2 43139  97.4361  70.2085 0009612 106.5257 253.7039 15.27899586163850
SPACEBEE-3              
1 43140U 18004AF  20357.69139290  .00008719  00000-0  31048-3 0  9995
2 43140  97.4384  71.4472 0009174 103.8341 256.3920 15.29147577163943
SPACEBEE-2              
1 43141U 18004AG  20358.15131746  .00009187  00000-0  32269-3 0  9992
2 43141  97.4399  72.3022 0009071 101.5474 258.6785 15.29580496164035
SPACEBEE-1              
1 43142U 18004AH  20357.47992110  .00009598  00000-0  33192-3 0  9999
2 43142  97.4406  72.0215 0008961 103.1923 257.0317 15.30074267163949
CICERO 7                
1 43143U 18004AJ  20357.42784123  .00003816  00000-0  15038-3 0  9994
2 43143  97.4290  68.5902 0008606 113.7861 246.4280 15.26167420163779
GOMX-4B                 
1 43196U 18015E   20357.47884142  .00001007  00000-0  43577-4 0  9991
2 43196  97.4615 124.9215 0019032 158.1431 202.0622 15.24643764160541
GOMX-4A                 
1 43197U 18015F   20358.07103300  .00001469  00000-0  61667-4 0  9991
2 43197  97.4610 125.6660 0019382 157.3820 320.8043 15.24924334160653
UBAKUSAT                
1 43467U 98067NQ  20358.17241148  .01131151  92967-3  70981-3 0  9997
2 43467  51.6271  17.0866 0006368  53.5329  26.2035 16.17286322150031
TEMPEST-D               
1 43547U 98067NV  20357.51619709  .00015146  00000-0  13168-3 0  9997
2 43547  51.6352  79.5494 0005293  28.6869 331.4418 15.69284830138960
RAINCUBE                
1 43548U 98067NW  20358.18195478  .04570912  12206-4  79235-3 0  9997
2 43548  51.6152  25.4895 0003995  58.6476 301.4938 16.32103209140180
HALOSAT                 
1 43549U 98067NX  20358.14073281  .00559029  15928-3  79433-3 0  9996
2 43549  51.6303  30.7616 0007184  47.0169 313.1445 16.04955027139671
EQUISAT                 
1 43552U 98067PA  20357.96213175  .01598997  11833-4  87860-3 0  9990
2 43552  51.6204  26.4296 0006971  51.5637 308.6005 16.18786369140088
